FENGYUN 1C DEB          
1 31886U 99025CKM 17344.53386959  .00001258  00000-0  65053-3 0  9996
2 31886  99.1794  97.8591 0060287 301.0507  58.4756 14.15997764538267
